SL-8 R/B                
1 19257U 88053B   26082.21642763  .00000339  00000+0  11836-3 0  9993
2 19257  74.0451  87.5300 0021529 265.0330 169.7080 14.38924965978543
COSMOS 1975             
1 19573U 88093A   26082.01731841  .00008419  00000+0  30403-3 0  9990
2 19573  82.5164 104.3017 0013163 120.1135 240.1411 15.28243936 21443
SL-14 R/B               
1 19574U 88093B   26082.12314723  .00000634  00000+0  70172-4 0  9998
2 19574  82.5331  29.4344 0020626 358.2753  12.4669 14.85672338  3014
SL-16 R/B               
1 19650U 88102B   26082.18426364 -.00000240  00000+0 -97091-4 0  9999
2 19650  70.9982 123.1041 0014893 340.7625  19.2934 14.16155110928802
INTERCOSMOS 24          
1 20261U 89080A   26082.30581840  .00000573  00000+0  17014-3 0  9993
2 20261  82.6014  95.5348 1186748 261.1852  85.3351 12.59576112668518
SL-14 R/B               
1 20262U 89080C   26082.23910365  .00000459  00000+0  13065-3 0  9999
2 20262  82.5966 164.4918 1230851 153.7936 213.1191 12.50507425661841
DELTA 1 R/B             
1 20323U 89089B   26082.27799978  .00000352  00000+0  95353-4 0  9998
2 20323  97.0695 287.5543 0070684  79.8979 281.0184 14.50674109897708
ARIANE 40 R/B           
1 20443U 90005H   26082.01680353  .00000276  00000+0  10115-3 0  9996
2 20443  98.3055 142.2794 0010685 158.7577 201.4058 14.39878834894729
DELTA 2 R/B(1)          
1 20453U 90008B   26081.71338892  .00072023  00000+0  80399-3 0  9994
2 20453  35.6030  89.2719 0080273  19.7585 340.6234 15.57617714928166
COSMOS 2058             
1 20465U 90010A   26082.15426305  .00005676  00000+0  33404-3 0  9991
2 20465  82.4681  34.1593 0007623 294.1425  65.9007 15.11437646944279
SL-14 R/B               
1 20466U 90010B   26082.17616878  .00000490  00000+0  56431-4 0  9995
2 20466  82.4988 254.7164 0018379 254.3563 105.5624 14.83580690930485
SL-14 R/B               
1 20511U 90018B   26082.07192853  .00000515  00000+0  61613-4 0  9991
2 20511  82.5227 210.5830 0017308  51.3932 308.8829 14.82158239924565
HST                     
1 20580U 90037B   26081.92659514  .00009186  00000+0  30241-3 0  9998
2 20580  28.4722 309.6900 0001472 276.5317  83.5111 15.29684298775343
SL-16 R/B               
1 20625U 90046B   26082.27003173  .00000142  00000+0  97784-4 0  9990
2 20625  70.9954 269.3906 0016250 281.8192  78.1107 14.15012758850316
COSMOS 2084             
1 20663U 90055A   26081.93811445  .00002682  00000+0  19799-3 0  9993
2 20663  62.7893 290.3895 0015023 193.7888 166.2804 15.05719517938317
SL-6 R/B(2)             
1 20666U 90055D   26082.07191533  .00002736  00000+0  21192-3 0  9991
2 20666  62.7831 208.3389 0026985 350.1703   9.8864 15.03658176940203
SL-8 R/B                
1 20775U 90078B   26081.94566125  .00016807  00000+0  49742-3 0  9990
2 20775  82.9019 239.3825 0359474 329.3321  28.7310 14.89473766811274
