[{"OBJECT_NAME":"SL-8 R/B","OBJECT_ID":"1988-053B","EPOCH":"2026-03-23T05:11:39.347232","MEAN_MOTION":14.38924965,"ECCENTRICITY":0.0021529,"INCLINATION":74.0451,"RA_OF_ASC_NODE":87.53,"ARG_OF_PERICENTER":265.033,"MEAN_ANOMALY":169.708,"EPHEMERIS_TYPE":0,"CLASSIFICATION_TYPE":"U","NORAD_CAT_ID":19257,"ELEMENT_SET_NO":999,"REV_AT_EPOCH":97854,"BSTAR":0.00011836109,"MEAN_MOTION_DOT":3.39e-6,"MEAN_MOTION_DDOT":0},{"OBJECT_NAME":"COSMOS 1975","OBJECT_ID":"1988-093A","EPOCH":"2026-03-23T00:24:56.310624","MEAN_MOTION":15.28243936,"ECCENTRICITY":0.00131636,"INCLINATION":82.5164,"RA_OF_ASC_NODE":104.3017,"ARG_OF_PERICENTER":120.1135,"MEAN_ANOMALY":240.1411,"EPHEMERIS_TYPE":0,"CLASSIFICATION_TYPE":"U","NORAD_CAT_ID":19573,"ELEMENT_SET_NO":999,"REV_AT_EPOCH":2144,"BSTAR":0.0003040259,"MEAN_MOTION_DOT":8.419e-5,"MEAN_MOTION_DDOT":0},{"OBJECT_NAME":"SL-14 R/B","OBJECT_ID":"1988-093B","EPOCH":"2026-03-23T02:57:19.920672","MEAN_MOTION":14.85672338,"ECCENTRICITY":0.0020626,"INCLINATION":82.5331,"RA_OF_ASC_NODE":29.4344,"ARG_OF_PERICENTER":358.2753,"MEAN_ANOMALY":12.4669,"EPHEMERIS_TYPE":0,"CLASSIFICATION_TYPE":"U","NORAD_CAT_ID":19574,"ELEMENT_SET_NO":999,"REV_AT_EPOCH":301,"BSTAR":7.0171869e-5,"MEAN_MOTION_DOT":6.34e-6,"MEAN_MOTION_DDOT":0},{"OBJECT_NAME":"SL-16 R/B","OBJECT_ID":"1988-102B","EPOCH":"2026-03-23T04:25:20.378496","MEAN_MOTION":14.1615511,"ECCENTRICITY":0.00148931,"INCLINATION":70.9982,"RA_OF_ASC_NODE":123.1041,"ARG_OF_PERICENTER":340.7625,"MEAN_ANOMALY":19.2934,"EPHEMERIS_TYPE":0,"CLASSIFICATION_TYPE":"U","NORAD_CAT_ID":19650,"ELEMENT_SET_NO":999,"REV_AT_EPOCH":92880,"BSTAR":-9.7091262e-5,"MEAN_MOTION_DOT":-2.4e-6,"MEAN_MOTION_DDOT":0},{"OBJECT_NAME":"INTERCOSMOS 24","OBJECT_ID":"1989-080A","EPOCH":"2026-03-23T07:20:22.709760","MEAN_MOTION":12.59576112,"ECCENTRICITY":0.1186748,"INCLINATION":82.6014,"RA_OF_ASC_NODE":95.5348,"ARG_OF_PERICENTER":261.1852,"MEAN_ANOMALY":85.3351,"EPHEMERIS_TYPE":0,"CLASSIFICATION_TYPE":"U","NORAD_CAT_ID":20261,"ELEMENT_SET_NO":999,"REV_AT_EPOCH":66851,"BSTAR":0.00017014113,"MEAN_MOTION_DOT":5.73e-6,"MEAN_MOTION_DDOT":0},{"OBJECT_NAME":"SL-14 R/B","OBJECT_ID":"1989-080C","EPOCH":"2026-03-23T05:44:18.555360","MEAN_MOTION":12.50507425,"ECCENTRICITY":0.1230851,"INCLINATION":82.5966,"RA_OF_ASC_NODE":164.4918,"ARG_OF_PERICENTER":153.7936,"MEAN_ANOMALY":213.1191,"EPHEMERIS_TYPE":0,"CLASSIFICATION_TYPE":"U","NORAD_CAT_ID":20262,"ELEMENT_SET_NO":999,"REV_AT_EPOCH":66184,"BSTAR":0.00013065131,"MEAN_MOTION_DOT":4.59e-6,"MEAN_MOTION_DDOT":0},{"OBJECT_NAME":"DELTA 1 R/B","OBJECT_ID":"1989-089B","EPOCH":"2026-03-23T06:40:19.180992","MEAN_MOTION":14.50674109,"ECCENTRICITY":0.00706843,"INCLINATION":97.0695,"RA_OF_ASC_NODE":287.5543,"ARG_OF_PERICENTER":79.8979,"MEAN_ANOMALY":281.0184,"EPHEMERIS_TYPE":0,"CLASSIFICATION_TYPE":"U","NORAD_CAT_ID":20323,"ELEMENT_SET_NO":999,"REV_AT_EPOCH":89770,"BSTAR":9.5352821e-5,"MEAN_MOTION_DOT":3.52e-6,"MEAN_MOTION_DDOT":0},{"OBJECT_NAME":"ARIANE 40 R/B","OBJECT_ID":"1990-005H","EPOCH":"2026-03-23T00:24:11.824992","MEAN_MOTION":14.39878834,"ECCENTRICITY":0.00106856,"INCLINATION":98.3055,"RA_OF_ASC_NODE":142.2794,"ARG_OF_PERICENTER":158.7577,"MEAN_ANOMALY":201.4058,"EPHEMERIS_TYPE":0,"CLASSIFICATION_TYPE":"U","NORAD_CAT_ID":20443,"ELEMENT_SET_NO":999,"REV_AT_EPOCH":89472,"BSTAR":0.00010115019,"MEAN_MOTION_DOT":2.76e-6,"MEAN_MOTION_DDOT":0},{"OBJECT_NAME":"DELTA 2 R/B(1)","OBJECT_ID":"1990-008B","EPOCH":"2026-03-22T17:07:16.802688","MEAN_MOTION":15.57617714,"ECCENTRICITY":0.00802734,"INCLINATION":35.603,"RA_OF_ASC_NODE":89.2719,"ARG_OF_PERICENTER":19.7585,"MEAN_ANOMALY":340.6234,"EPHEMERIS_TYPE":0,"CLASSIFICATION_TYPE":"U","NORAD_CAT_ID":20453,"ELEMENT_SET_NO":999,"REV_AT_EPOCH":92816,"BSTAR":0.00080398857,"MEAN_MOTION_DOT":0.00072023,"MEAN_MOTION_DDOT":0},{"OBJECT_NAME":"COSMOS 2058","OBJECT_ID":"1990-010A","EPOCH":"2026-03-23T03:42:08.327520","MEAN_MOTION":15.11437646,"ECCENTRICITY":0.00076235,"INCLINATION":82.4681,"RA_OF_ASC_NODE":34.1593,"ARG_OF_PERICENTER":294.1425,"MEAN_ANOMALY":65.9007,"EPHEMERIS_TYPE":0,"CLASSIFICATION_TYPE":"U","NORAD_CAT_ID":20465,"ELEMENT_SET_NO":999,"REV_AT_EPOCH":94427,"BSTAR":0.00033404315,"MEAN_MOTION_DOT":5.676e-5,"MEAN_MOTION_DDOT":0},{"OBJECT_NAME":"SL-14 R/B","OBJECT_ID":"1990-010B","EPOCH":"2026-03-23T04:13:40.982592","MEAN_MOTION":14.8358069,"ECCENTRICITY":0.00183797,"INCLINATION":82.4988,"RA_OF_ASC_NODE":254.7164,"ARG_OF_PERICENTER":254.3563,"MEAN_ANOMALY":105.5624,"EPHEMERIS_TYPE":0,"CLASSIFICATION_TYPE":"U","NORAD_CAT_ID":20466,"ELEMENT_SET_NO":999,"REV_AT_EPOCH":93048,"BSTAR":5.6430745e-5,"MEAN_MOTION_DOT":4.9e-6,"MEAN_MOTION_DDOT":0},{"OBJECT_NAME":"SL-14 R/B","OBJECT_ID":"1990-018B","EPOCH":"2026-03-23T01:43:34.624992","MEAN_MOTION":14.82158239,"ECCENTRICITY":0.00173084,"INCLINATION":82.5227,"RA_OF_ASC_NODE":210.583,"ARG_OF_PERICENTER":51.3932,"MEAN_ANOMALY":308.8829,"EPHEMERIS_TYPE":0,"CLASSIFICATION_TYPE":"U","NORAD_CAT_ID":20511,"ELEMENT_SET_NO":999,"REV_AT_EPOCH":92456,"BSTAR":6.1612698e-5,"MEAN_MOTION_DOT":5.15e-6,"MEAN_MOTION_DDOT":0},{"OBJECT_NAME":"HST","OBJECT_ID":"1990-037B","EPOCH":"2026-03-22T22:14:17.820096","MEAN_MOTION":15.29684298,"ECCENTRICITY":0.00014721,"INCLINATION":28.4722,"RA_OF_ASC_NODE":309.69,"ARG_OF_PERICENTER":276.5317,"MEAN_ANOMALY":83.5111,"EPHEMERIS_TYPE":0,"CLASSIFICATION_TYPE":"U","NORAD_CAT_ID":20580,"ELEMENT_SET_NO":999,"REV_AT_EPOCH":77534,"BSTAR":0.0003024098,"MEAN_MOTION_DOT":9.186e-5,"MEAN_MOTION_DDOT":0},{"OBJECT_NAME":"SL-16 R/B","OBJECT_ID":"1990-046B","EPOCH":"2026-03-23T06:28:50.741472","MEAN_MOTION":14.15012758,"ECCENTRICITY":0.00162509,"INCLINATION":70.9954,"RA_OF_ASC_NODE":269.3906,"ARG_OF_PERICENTER":281.8192,"MEAN_ANOMALY":78.1107,"EPHEMERIS_TYPE":0,"CLASSIFICATION_TYPE":"U","NORAD_CAT_ID":20625,"ELEMENT_SET_NO":999,"REV_AT_EPOCH":85031,"BSTAR":9.7784458e-5,"MEAN_MOTION_DOT":1.42e-6,"MEAN_MOTION_DDOT":0},{"OBJECT_NAME":"COSMOS 2084","OBJECT_ID":"1990-055A","EPOCH":"2026-03-22T22:30:53.088480","MEAN_MOTION":15.05719517,"ECCENTRICITY":0.00150236,"INCLINATION":62.7893,"RA_OF_ASC_NODE":290.3895,"ARG_OF_PERICENTER":193.7888,"MEAN_ANOMALY":166.2804,"EPHEMERIS_TYPE":0,"CLASSIFICATION_TYPE":"U","NORAD_CAT_ID":20663,"ELEMENT_SET_NO":999,"REV_AT_EPOCH":93831,"BSTAR":0.00019798942,"MEAN_MOTION_DOT":2.682e-5,"MEAN_MOTION_DDOT":0},{"OBJECT_NAME":"SL-6 R/B(2)","OBJECT_ID":"1990-055D","EPOCH":"2026-03-23T01:43:33.484512","MEAN_MOTION":15.03658176,"ECCENTRICITY":0.00269851,"INCLINATION":62.7831,"RA_OF_ASC_NODE":208.3389,"ARG_OF_PERICENTER":350.1703,"MEAN_ANOMALY":9.8864,"EPHEMERIS_TYPE":0,"CLASSIFICATION_TYPE":"U","NORAD_CAT_ID":20666,"ELEMENT_SET_NO":999,"REV_AT_EPOCH":94020,"BSTAR":0.00021191574,"MEAN_MOTION_DOT":2.736e-5,"MEAN_MOTION_DDOT":0},{"OBJECT_NAME":"SL-8 R/B","OBJECT_ID":"1990-078B","EPOCH":"2026-03-22T22:41:45.132000","MEAN_MOTION":14.89473766,"ECCENTRICITY":0.03594746,"INCLINATION":82.9019,"RA_OF_ASC_NODE":239.3825,"ARG_OF_PERICENTER":329.3321,"MEAN_ANOMALY":28.731,"EPHEMERIS_TYPE":0,"CLASSIFICATION_TYPE":"U","NORAD_CAT_ID":20775,"ELEMENT_SET_NO":999,"REV_AT_EPOCH":81127,"BSTAR":0.0004974166,"MEAN_MOTION_DOT":0.00016807,"MEAN_MOTION_DDOT":0}]
